{"fetched_at":"2026-03-29T16:36:15Z","count":15609,"tles":[{"name":"LEMUR-2-KREMPEL-BRO2","line1":"1 63353U 25061C   26087.90731961  .00004617  00000+0  26136-3 0  9991","line2":"2 63353  97.5630  64.4275 0019729 168.5686 191.5997 15.13372047 55462","category":"Other"}]}